NORAD_CAT_ID,OBJECT_NAME,OBJECT_TYPE,EPOCH,MEAN_MOTION,ECCENTRICITY,INCLINATION,RA_OF_ASC_NODE,ARG_OF_PERICENTER,MEAN_ANOMALY,BSTAR,MEAN_MOTION_DOT,MEAN_MOTION_DDOT,TLE_LINE0,TLE_LINE1,TLE_LINE2,SEMIMAJOR_AXIS,PERIOD,APOGEE,PERIGEE,DECAYED
55419.0,STARLINK-5629,PAYLOAD,2024-01-14 02:58:33,14.98335459,0.0002701,69.9991,265.0812,265.0089,95.0762,7.0858e-05,7.53e-06,0.0,0 STARLINK-5629,1 55419U 23014AE  24014.12400169  .00000753  00000-0  70858-4 0  9995,2 55419  69.9991 265.0812 0002701 265.0089  95.0762 14.98335459 52954,6950.176,96.107,573.918,570.164,0.0
55419.0,STARLINK-5629,PAYLOAD,2024-01-14 18:59:54,14.98330515,0.0002558,69.9993,263.3984,259.2345,100.8526,2.7391e-05,2.34e-06,0.0,0 STARLINK-5629,1 55419U 23014AE  24014.79160467  .00000234  00000-0  27391-4 0  9990,2 55419  69.9993 263.3984 0002558 259.2345 100.8526 14.98330515 53050,6950.191,96.107,573.834,570.278,0.0
55419.0,STARLINK-5629,PAYLOAD,2024-01-14 22:12:10,14.98330308,0.0002577,69.9992,263.0618,258.1156,101.9714,2.2036e-05,1.7e-06,0.0,0 STARLINK-5629,1 55419U 23014AE  24014.92512478  .00000170  00000-0  22036-4 0  9998,2 55419  69.9992 263.0618 0002577 258.1156 101.9714 14.98330308 54017,6950.192,96.107,573.848,570.266,0.0
55419.0,STARLINK-5629,PAYLOAD,2024-01-15 03:00:34,14.98330491,0.0002574,69.9992,262.5568,259.3362,100.7507,2.2283e-05,1.73e-06,0.0,0 STARLINK-5629,1 55419U 23014AE  24015.12540461  .00000173  00000-0  22283-4 0  9991,2 55419  69.9992 262.5568 0002574 259.3362 100.7507 14.98330491 54047,6950.191,96.107,573.845,570.267,0.0
55419.0,STARLINK-5629,PAYLOAD,2024-01-15 19:01:55,14.9833313,0.0002609,69.9991,260.8739,252.754,107.3334,-1.0522e-05,-2.19e-06,0.0,0 STARLINK-5629,1 55419U 23014AE  24015.79300233 -.00000219  00000-0 -10522-4 0  9991,2 55419  69.9991 260.8739 0002609 252.7540 107.3334 14.98333130 53202,6950.183,96.107,573.862,570.235,0.0
55419.0,STARLINK-5629,PAYLOAD,2024-01-15 20:38:03,14.98332669,0.0002627,69.9992,260.7054,252.9236,107.1636,-1.6138e-05,-2.86e-06,0.0,0 STARLINK-5629,1 55419U 23014AE  24015.85976258 -.00000286  00000-0 -16138-4 0  9997,2 55419  69.9992 260.7054 0002627 252.9236 107.1636 14.98332669 54150,6950.185,96.107,573.875,570.224,0.0
55419.0,STARLINK-5629,PAYLOAD,2024-01-16 01:26:27,14.98332225,0.0002634,69.9992,260.2005,253.0092,107.0778,-2.0405e-05,-3.36e-06,0.0,0 STARLINK-5629,1 55419U 23014AE  24016.06004270 -.00000336  00000-0 -20405-4 0  9995,2 55419  69.9992 260.2005 0002634 253.0092 107.0778 14.98332225 54188,6950.186,96.107,573.882,570.22,0.0
55419.0,STARLINK-5629,PAYLOAD,2024-01-16 19:03:56,14.9832703,0.0002633,69.9993,258.3492,251.6742,108.413,-2.3314e-05,-3.71e-06,0.0,0 STARLINK-5629,1 55419U 23014AE  24016.79440575 -.00000371  00000-0 -23314-4 0  9998,2 55419  69.9993 258.3492 0002633 251.6742 108.4130 14.98327030 53355,6950.202,96.107,573.897,570.237,0.0
55419.0,STARLINK-5629,PAYLOAD,2024-01-16 22:16:12,14.9832682,0.0002641,69.9992,258.0124,252.0492,108.038,-2.5208e-05,-3.94e-06,0.0,0 STARLINK-5629,1 55419U 23014AE  24016.92792614 -.00000394  00000-0 -25208-4 0  9996,2 55419  69.9992 258.0124 0002641 252.0492 108.0380 14.98326820 54315,6950.203,96.107,573.903,570.232,0.0
55419.0,STARLINK-5629,PAYLOAD,2024-01-17 01:28:28,14.98327278,0.0002771,69.9985,257.6739,265.4171,94.6672,-2.7778e-05,-4.24e-06,0.0,0 STARLINK-5629,1 55419U 23014AE  24017.06144663 -.00000424  00000-0 -27778-4 0  9995,2 55419  69.9985 257.6739 0002771 265.4171  94.6672 14.98327278 54334,6950.201,96.107,573.992,570.14,0.0
55419.0,STARLINK-5629,PAYLOAD,2024-01-17 19:05:57,14.9832675,0.0002813,69.9983,255.8219,264.4506,95.6332,-2.5976e-05,-4.03e-06,0.0,0 STARLINK-5629,1 55419U 23014AE  24017.79580803 -.00000403  00000-0 -25976-4 0  9990,2 55419  69.9983 255.8219 0002813 264.4506  95.6332 14.98326750 53509,6950.203,96.107,574.023,570.113,0.0
55419.0,STARLINK-5629,PAYLOAD,2024-01-17 22:18:13,14.98326703,0.0002815,69.9984,255.4855,264.8871,95.1967,-2.49e-05,-3.9e-06,0.0,0 STARLINK-5629,1 55419U 23014AE  24017.92932832 -.00000390  00000-0 -24900-4 0  9999,2 55419  69.9984 255.4855 0002815 264.8871  95.1967 14.98326703 54466,6950.203,96.107,574.025,570.112,0.0
55419.0,STARLINK-5629,PAYLOAD,2024-01-18 01:30:30,14.98327691,0.0002804,69.9985,255.149,264.6974,95.3865,-1.281e-05,-2.46e-06,0.0,0 STARLINK-5629,1 55419U 23014AE  24018.06284760 -.00000246  00000-0 -12810-4 0  9992,2 55419  69.9985 255.1490 0002804 264.6974  95.3865 14.98327691 54487,6950.2,96.107,574.014,570.116,0.0
55419.0,STARLINK-5629,PAYLOAD,2024-01-18 19:07:58,14.98332544,0.0002988,69.9981,253.2978,265.5415,94.5403,6.0066e-05,6.24e-06,0.0,0 STARLINK-5629,1 55419U 23014AE  24018.79720253  .00000624  00000-0  60066-4 0  9998,2 55419  69.9981 253.2978 0002988 265.5415  94.5403 14.98332544 53656,6950.185,96.107,574.127,569.973,0.0
55419.0,STARLINK-5629,PAYLOAD,2024-01-18 22:20:14,14.98334638,0.0002974,69.9979,252.9609,264.6629,95.4191,8.282e-05,8.95e-06,0.0,0 STARLINK-5629,1 55419U 23014AE  24018.93072026  .00000895  00000-0  82820-4 0  9994,2 55419  69.9979 252.9609 0002974 264.6629  95.4191 14.98334638 54619,6950.179,96.107,574.111,569.977,0.0
55419.0,STARLINK-5629,PAYLOAD,2024-01-19 01:32:30,14.98337065,0.0002986,69.9979,252.6242,267.9821,92.0996,0.00010789,1.195e-05,0.0,0 STARLINK-5629,1 55419U 23014AE  24019.06423776  .00001195  00000-0  10789-3 0  9999,2 55419  69.9979 252.6242 0002986 267.9821  92.0996 14.98337065 54637,6950.171,96.107,574.111,569.961,0.0
55419.0,STARLINK-5629,PAYLOAD,2024-01-19 19:09:59,14.98330983,0.0002942,69.9981,250.772,267.2059,92.8763,2.49e-05,2.04e-06,0.0,0 STARLINK-5629,1 55419U 23014AE  24019.79860279  .00000204  00000-0  24900-4 0  9993,2 55419  69.9981 250.7720 0002942 267.2059  92.8763 14.98330983 53808,6950.19,96.107,574.1,570.01,0.0
55419.0,STARLINK-5629,PAYLOAD,2024-01-19 22:22:15,14.98332504,0.000277,69.9984,250.4356,267.3194,92.7648,4.3961e-05,4.32e-06,0.0,0 STARLINK-5629,1 55419U 23014AE  24019.93212142  .00000432  00000-0  43961-4 0  9990,2 55419  69.9984 250.4356 0002770 267.3194  92.7648 14.98332504 54761,6950.185,96.107,573.975,570.125,0.0
55419.0,STARLINK-5629,PAYLOAD,2024-01-20 01:34:31,14.98334327,0.0002838,69.9982,250.099,265.2476,94.8359,6.9575e-05,7.37e-06,0.0,0 STARLINK-5629,1 55419U 23014AE  24020.06563884  .00000737  00000-0  69575-4 0  9995,2 55419  69.9982 250.0990 0002838 265.2476  94.8359 14.98334327 54783,6950.18,96.107,574.017,570.072,0.0
55419.0,STARLINK-5629,PAYLOAD,2024-01-20 19:12:00,14.98328042,0.0002697,69.9987,248.2475,268.3673,91.7177,-3.5768e-05,-5.2e-06,0.0,0 STARLINK-5629,1 55419U 23014AE  24020.80000544 -.00000520  00000-0 -35768-4 0  9995,2 55419  69.9987 248.2475 0002697 268.3673  91.7177 14.98328042 53950,6950.199,96.107,573.938,570.189,0.0
55419.0,STARLINK-5629,PAYLOAD,2024-01-20 22:24:16,14.98325876,0.0002714,69.9986,247.9106,265.6993,94.3856,-4.6053e-05,-6.42e-06,0.0,0 STARLINK-5629,1 55419U 23014AE  24020.93352705 -.00000642  00000-0 -46053-4 0  9992,2 55419  69.9986 247.9106 0002714 265.6993  94.3856 14.98325876 54913,6950.206,96.107,573.957,570.184,0.0
55419.0,STARLINK-5629,PAYLOAD,2024-01-21 01:36:32,14.98327463,0.0002741,69.9986,247.5741,268.1557,91.9288,-4.0874e-05,-5.81e-06,0.0,0 STARLINK-5629,1 55419U 23014AE  24021.06704617 -.00000581  00000-0 -40874-4 0  9997,2 55419  69.9986 247.5741 0002741 268.1557  91.9288 14.98327463 54936,6950.201,96.107,573.971,570.161,0.0
55419.0,STARLINK-5629,PAYLOAD,2024-01-21 19:14:00,14.98334248,0.0002783,69.9983,245.7225,266.9264,93.1577,1.2069e-05,5.1e-07,0.0,0 STARLINK-5629,1 55419U 23014AE  24021.80139884  .00000051  00000-0  12069-4 0  9992,2 55419  69.9983 245.7225 0002783 266.9264  93.1577 14.98334248 54100,6950.18,96.107,573.979,570.111,0.0
55419.0,STARLINK-5629,PAYLOAD,2024-01-21 22:26:16,14.98334164,0.0002779,69.9983,245.3858,266.7702,93.3139,1.2002e-05,5e-07,0.0,0 STARLINK-5629,1 55419U 23014AE  24021.93491851  .00000050  00000-0  12002-4 0  9997,2 55419  69.9983 245.3858 0002779 266.7702  93.3139 14.98334164 55067,6950.18,96.107,573.976,570.114,0.0
55419.0,STARLINK-5629,PAYLOAD,2024-01-22 00:02:25,14.98334251,0.0002777,69.9983,245.2175,266.8258,93.2583,1.3146e-05,6.4e-07,0.0,0 STARLINK-5629,1 55419U 23014AE  24022.00167826  .00000064  00000-0  13146-4 0  9993,2 55419  69.9983 245.2175 0002777 266.8258  93.2583 14.98334251 55073,6950.18,96.107,573.975,570.115,0.0
55419.0,STARLINK-5629,PAYLOAD,2024-01-22 19:16:02,14.98325876,0.0002865,69.998,243.1974,268.1052,91.9779,1.1869e-05,4.9e-07,0.0,0 STARLINK-5629,1 55419U 23014AE  24022.80280371  .00000049  00000-0  11869-4 0  9995,2 55419  69.9980 243.1974 0002865 268.1052  91.9779 14.98325876 54253,6950.206,96.107,574.062,570.079,0.0
55419.0,STARLINK-5629,PAYLOAD,2024-01-22 22:28:18,14.98326647,0.0002849,69.998,242.8607,267.9164,92.1669,2.0023e-05,1.46e-06,0.0,0 STARLINK-5629,1 55419U 23014AE  24022.93632311  .00000146  00000-0  20023-4 0  9994,2 55419  69.9980 242.8607 0002849 267.9164  92.1669 14.98326647 55210,6950.203,96.107,574.048,570.088,0.0
55419.0,STARLINK-5629,PAYLOAD,2024-01-23 00:04:26,14.98326415,0.0002853,69.998,242.6924,268.1838,91.8994,1.6429e-05,1.03e-06,0.0,0 STARLINK-5629,1 55419U 23014AE  24023.00308347  .00000103  00000-0  16429-4 0  9990,2 55419  69.9980 242.6924 0002853 268.1838  91.8994 14.98326415 55227,6950.204,96.107,574.052,570.086,0.0
55419.0,STARLINK-5629,PAYLOAD,2024-01-23 16:05:46,14.9833342,0.0002837,69.9978,241.0086,267.1759,92.9075,1.7396e-06,-7.2e-07,0.0,0 STARLINK-5629,1 55419U 23014AE  24023.67067933 -.00000072  00000-0  17396-5 0  9997,2 55419  69.9978 241.0086 0002837 267.1759  92.9075 14.98333420 54381,6950.182,96.107,574.019,570.076,0.0
55419.0,STARLINK-5629,PAYLOAD,2024-01-23 22:30:18,14.98333265,0.0002836,69.998,240.3354,267.2137,92.8697,1.4962e-06,-7.5e-07,0.0,0 STARLINK-5629,1 55419U 23014AE  24023.93771874 -.00000075  00000-0  14962-5 0  9991,2 55419  69.9980 240.3354 0002836 267.2137  92.8697 14.98333265 55369,6950.183,96.107,574.019,570.077,0.0
